SZ-21 MODULE            
1 66515U 25246C   25330.87378797  .00028683  00000+0  32939-3 0  9996
2 66515  41.4759 112.7499 0005009 159.2058 200.8986 15.61394026  1968
SHENZHOU-22             
1 66645U 25272A   25331.27319927  .00020570  00000+0  26644-3 0  9997
2 66645  41.4669 110.5393 0010765 279.2422  80.7198 15.58329246261612
CZ-2F R/B               
1 66646U 25272B   25330.47076975  .00449059  75676-5  29319-3 0  9998
2 66646  41.4431 114.9009 0121079 133.7676 227.3272 16.01945612   217
